{"features": [{"geometry": {"coordinates": [-122.673978, 45.519072], "type": "Point"}, "properties": {"speed": 5}, "type": "Feature"}, {"geometry": {"coordinates": [-122.673945, 45.519127], "type": "Point"}, "properties": {"speed": 0}, "type": "Feature"}, {"geometry": {"coordinates": [-122.674392, 45.519507], "type": "Point"}, "properties": {"speed": 3}, "type": "Feature"}, {"geometry": {"coordinates": [-122.674577, 45.519543], "type": "Point"}, "properties": {"speed": 3}, "type": "Feature"}, {"geometry": {"coordinates": [-122.677295, 45.520145], "type": "Point"}, "properties": {"speed": 6}, "type": "Feature"}, {"geometry": {"coordinates": [-122.682165, 45.521418], "type": "Point"}, "properties": {"speed": 6}, "type": "Feature"}, {"geometry": {"coordinates": [-122.682392, 45.521517], "type": "Point"}, "properties": {"speed": 4}, "type": "Feature"}, {"geometry": {"coordinates": [-122.682747, 45.521163], "type": "Point"}, "properties": {"speed": 4}, "type": "Feature"}, {"geometry": {"coordinates": [-122.682802, 45.521065], "type": "Point"}, "properties": {"speed": 0}, "type": "Feature"}, {"geometry": {"coordinates": [-122.682802, 45.521065], "type": "Point"}, "properties": {"speed": 0}, "type": "Feature"}, {"geometry": {"coordinates": [-122.682808, 45.521053], "type": "Point"}, "properties": {"speed": 2}, "type": "Feature"}, {"geometry": {"coordinates": [-122.683195, 45.520337], "type": "Point"}, "properties": {"speed": 1}, "type": "Feature"}, {"geometry": {"coordinates": [-122.68335, 45.520328], "type": "Point"}, "properties": {"speed": 2}, "type": "Feature"}, {"geometry": {"coordinates": [-122.684565, 45.52065], "type": "Point"}, "properties": {"speed": 2}, "type": "Feature"}, {"geometry": {"coordinates": [-122.687018, 45.52131], "type": "Point"}, "properties": {"speed": 3}, "type": "Feature"}, {"geometry": {"coordinates": [-122.688577, 45.521728], "type": "Point"}, "properties": {"speed": 5}, "type": "Feature"}, {"geometry": {"coordinates": [-122.689865, 45.522058], "type": "Point"}, "properties": {"speed": 3}, "type": "Feature"}, {"geometry": {"coordinates": [-122.689895, 45.522067], "type": "Point"}, "properties": {"speed": 0}, "type": "Feature"}, {"geometry": {"coordinates": [-122.689895, 45.522067], "type": "Point"}, "properties": {"speed": 0}, "type": "Feature"}, {"geometry": {"coordinates": [-122.689895, 45.522067], "type": "Point"}, "properties": {"speed": 0}, "type": "Feature"}, {"geometry": {"coordinates": [-122.689963, 45.522083], "type": "Point"}, "properties": {"speed": 3}, "type": "Feature"}, {"geometry": {"coordinates": [-122.693287, 45.52049], "type": "Point"}, "properties": {"speed": 5}, "type": "Feature"}, {"geometry": {"coordinates": [-122.69511, 45.520983], "type": "Point"}, "properties": {"speed": 5}, "type": "Feature"}, {"geometry": {"coordinates": [-122.697935, 45.521335], "type": "Point"}, "properties": {"speed": 2}, "type": "Feature"}, {"geometry": {"coordinates": [-122.698312, 45.52122], "type": "Point"}, "properties": {"speed": 2}, "type": "Feature"}, {"geometry": {"coordinates": [-122.695897, 45.516298], "type": "Point"}, "properties": {"speed": 5}, "type": "Feature"}, {"geometry": {"coordinates": [-122.697102, 45.514813], "type": "Point"}, "properties": {"speed": 6}, "type": "Feature"}, {"geometry": {"coordinates": [-122.696498, 45.514095], "type": "Point"}, "properties": {"speed": 8}, "type": "Feature"}, {"geometry": {"coordinates": [-122.697985, 45.511382], "type": "Point"}, "properties": {"speed": 8}, "type": "Feature"}, {"geometry": {"coordinates": [-122.698725, 45.51005], "type": "Point"}, "properties": {"speed": 4}, "type": "Feature"}, {"geometry": {"coordinates": [-122.698892, 45.509685], "type": "Point"}, "properties": {"speed": 5}, "type": "Feature"}, {"geometry": {"coordinates": [-122.702482, 45.508452], "type": "Point"}, "properties": {"speed": 9}, "type": "Feature"}, {"geometry": {"coordinates": [-122.704097, 45.508088], "type": "Point"}, "properties": {"speed": 4}, "type": "Feature"}, {"geometry": {"coordinates": [-122.704172, 45.506893], "type": "Point"}, "properties": {"speed": 2}, "type": "Feature"}, {"geometry": {"coordinates": [-122.705282, 45.505113], "type": "Point"}, "properties": {"speed": 7}, "type": "Feature"}, {"geometry": {"coordinates": [-122.706725, 45.50436], "type": "Point"}, "properties": {"speed": 9}, "type": "Feature"}, {"geometry": {"coordinates": [-122.70832, 45.503193], "type": "Point"}, "properties": {"speed": 6}, "type": "Feature"}, {"geometry": {"coordinates": [-122.710277, 45.503548], "type": "Point"}, "properties": {"speed": 9}, "type": "Feature"}, {"geometry": {"coordinates": [-122.71156, 45.503222], "type": "Point"}, "properties": {"speed": 7}, "type": "Feature"}, {"geometry": {"coordinates": [-122.71245, 45.503358], "type": "Point"}, "properties": {"speed": 7}, "type": "Feature"}, {"geometry": {"coordinates": [-122.71281, 45.503145], "type": "Point"}, "properties": {"speed": 7}, "type": "Feature"}, {"geometry": {"coordinates": [-122.713193, 45.50229], "type": "Point"}, "properties": {"speed": 0}, "type": "Feature"}, {"geometry": {"coordinates": [-122.713168, 45.50209], "type": "Point"}, "properties": {"speed": 3}, "type": "Feature"}, {"geometry": {"coordinates": [-122.713057, 45.502022], "type": "Point"}, "properties": {"speed": 2}, "type": "Feature"}, {"geometry": {"coordinates": [-122.713, 45.501995], "type": "Point"}, "properties": {"speed": 1}, "type": "Feature"}, {"geometry": {"coordinates": [-122.711085, 45.501425], "type": "Point"}, "properties": {"speed": 5}, "type": "Feature"}, {"geometry": {"coordinates": [-122.710572, 45.500853], "type": "Point"}, "properties": {"speed": 1}, "type": "Feature"}, {"geometry": {"coordinates": [-122.70912, 45.50099], "type": "Point"}, "properties": {"speed": 8}, "type": "Feature"}, {"geometry": {"coordinates": [-122.70643, 45.499607], "type": "Point"}, "properties": {"speed": 10}, "type": "Feature"}, {"geometry": {"coordinates": [-122.70592, 45.49935], "type": "Point"}, "properties": {"speed": 8}, "type": "Feature"}, {"geometry": {"coordinates": [-122.705308, 45.498227], "type": "Point"}, "properties": {"speed": 9}, "type": "Feature"}, {"geometry": {"coordinates": [-122.702513, 45.496537], "type": "Point"}, "properties": {"speed": 3}, "type": "Feature"}, {"geometry": {"coordinates": [-122.702185, 45.49639], "type": "Point"}, "properties": {"speed": 6}, "type": "Feature"}, {"geometry": {"coordinates": [-122.701887, 45.49604], "type": "Point"}, "properties": {"speed": 5}, "type": "Feature"}, {"geometry": {"coordinates": [-122.701867, 45.495693], "type": "Point"}, "properties": {"speed": 9}, "type": "Feature"}, {"geometry": {"coordinates": [-122.702118, 45.495062], "type": "Point"}, "properties": {"speed": 7}, "type": "Feature"}, {"geometry": {"coordinates": [-122.700155, 45.493345], "type": "Point"}, "properties": {"speed": 3}, "type": "Feature"}, {"geometry": {"coordinates": [-122.699245, 45.493357], "type": "Point"}, "properties": {"speed": 6}, "type": "Feature"}, {"geometry": {"coordinates": [-122.698912, 45.493355], "type": "Point"}, "properties": {"speed": 5}, "type": "Feature"}], "type": "FeatureCollection"}