{"features": [{"geometry": {"coordinates": [-122.640583, 45.571853], "type": "Point"}, "properties": {"speed": 9}, "type": "Feature"}, {"geometry": {"coordinates": [-122.638102, 45.571622], "type": "Point"}, "properties": {"speed": 5}, "type": "Feature"}, {"geometry": {"coordinates": [-122.682947, 45.508955], "type": "Point"}, "properties": {"speed": 10}, "type": "Feature"}, {"geometry": {"coordinates": [-122.682335, 45.507953], "type": "Point"}, "properties": {"speed": 8}, "type": "Feature"}, {"geometry": {"coordinates": [-122.681775, 45.507907], "type": "Point"}, "properties": {"speed": 9}, "type": "Feature"}, {"geometry": {"coordinates": [-122.679072, 45.507858], "type": "Point"}, "properties": {"speed": 6}, "type": "Feature"}, {"geometry": {"coordinates": [-122.675703, 45.507617], "type": "Point"}, "properties": {"speed": 11}, "type": "Feature"}, {"geometry": {"coordinates": [-122.674348, 45.505288], "type": "Point"}, "properties": {"speed": 11}, "type": "Feature"}, {"geometry": {"coordinates": [-122.672587, 45.502463], "type": "Point"}, "properties": {"speed": 1}, "type": "Feature"}, {"geometry": {"coordinates": [-122.672587, 45.502463], "type": "Point"}, "properties": {"speed": 0}, "type": "Feature"}, {"geometry": {"coordinates": [-122.672587, 45.502463], "type": "Point"}, "properties": {"speed": 0}, "type": "Feature"}, {"geometry": {"coordinates": [-122.672582, 45.502463], "type": "Point"}, "properties": {"speed": 0}, "type": "Feature"}, {"geometry": {"coordinates": [-122.671958, 45.502502], "type": "Point"}, "properties": {"speed": 6}, "type": "Feature"}, {"geometry": {"coordinates": [-122.670938, 45.50285], "type": "Point"}, "properties": {"speed": 3}, "type": "Feature"}, {"geometry": {"coordinates": [-122.670505, 45.50298], "type": "Point"}, "properties": {"speed": 3}, "type": "Feature"}, {"geometry": {"coordinates": [-122.67009, 45.503062], "type": "Point"}, "properties": {"speed": 4}, "type": "Feature"}, {"geometry": {"coordinates": [-122.66634, 45.505377], "type": "Point"}, "properties": {"speed": 11}, "type": "Feature"}, {"geometry": {"coordinates": [-122.664657, 45.506445], "type": "Point"}, "properties": {"speed": 3}, "type": "Feature"}, {"geometry": {"coordinates": [-122.66455, 45.506497], "type": "Point"}, "properties": {"speed": 0}, "type": "Feature"}, {"geometry": {"coordinates": [-122.66455, 45.506497], "type": "Point"}, "properties": {"speed": 0}, "type": "Feature"}, {"geometry": {"coordinates": [-122.664547, 45.506498], "type": "Point"}, "properties": {"speed": 0}, "type": "Feature"}, {"geometry": {"coordinates": [-122.6631, 45.506552], "type": "Point"}, "properties": {"speed": 6}, "type": "Feature"}, {"geometry": {"coordinates": [-122.662637, 45.506543], "type": "Point"}, "properties": {"speed": 7}, "type": "Feature"}, {"geometry": {"coordinates": [-122.658727, 45.505613], "type": "Point"}, "properties": {"speed": 6}, "type": "Feature"}, {"geometry": {"coordinates": [-122.658772, 45.504983], "type": "Point"}, "properties": {"speed": 0}, "type": "Feature"}, {"geometry": {"coordinates": [-122.658772, 45.504983], "type": "Point"}, "properties": {"speed": 0}, "type": "Feature"}, {"geometry": {"coordinates": [-122.658772, 45.504982], "type": "Point"}, "properties": {"speed": 0}, "type": "Feature"}, {"geometry": {"coordinates": [-122.657497, 45.504812], "type": "Point"}, "properties": {"speed": 9}, "type": "Feature"}, {"geometry": {"coordinates": [-122.656593, 45.504513], "type": "Point"}, "properties": {"speed": 7}, "type": "Feature"}, {"geometry": {"coordinates": [-122.654335, 45.50266], "type": "Point"}, "properties": {"speed": 7}, "type": "Feature"}, {"geometry": {"coordinates": [-122.65331, 45.500833], "type": "Point"}, "properties": {"speed": 2}, "type": "Feature"}, {"geometry": {"coordinates": [-122.65157, 45.500415], "type": "Point"}, "properties": {"speed": 13}, "type": "Feature"}, {"geometry": {"coordinates": [-122.65078, 45.500203], "type": "Point"}, "properties": {"speed": 13}, "type": "Feature"}, {"geometry": {"coordinates": [-122.649978, 45.500015], "type": "Point"}, "properties": {"speed": 13}, "type": "Feature"}, {"geometry": {"coordinates": [-122.648338, 45.497582], "type": "Point"}, "properties": {"speed": 0}, "type": "Feature"}, {"geometry": {"coordinates": [-122.648673, 45.494133], "type": "Point"}, "properties": {"speed": 5}, "type": "Feature"}, {"geometry": {"coordinates": [-122.648653, 45.490692], "type": "Point"}, "properties": {"speed": 8}, "type": "Feature"}, {"geometry": {"coordinates": [-122.643005, 45.490272], "type": "Point"}, "properties": {"speed": 13}, "type": "Feature"}, {"geometry": {"coordinates": [-122.63828, 45.490282], "type": "Point"}, "properties": {"speed": 6}, "type": "Feature"}, {"geometry": {"coordinates": [-122.638073, 45.490283], "type": "Point"}, "properties": {"speed": 3}, "type": "Feature"}, {"geometry": {"coordinates": [-122.635658, 45.49028], "type": "Point"}, "properties": {"speed": 11}, "type": "Feature"}, {"geometry": {"coordinates": [-122.632893, 45.490602], "type": "Point"}, "properties": {"speed": 11}, "type": "Feature"}, {"geometry": {"coordinates": [-122.627745, 45.490288], "type": "Point"}, "properties": {"speed": 11}, "type": "Feature"}, {"geometry": {"coordinates": [-122.610378, 45.490277], "type": "Point"}, "properties": {"speed": 11}, "type": "Feature"}, {"geometry": {"coordinates": [-122.609852, 45.490272], "type": "Point"}, "properties": {"speed": 8}, "type": "Feature"}, {"geometry": {"coordinates": [-122.60853, 45.490257], "type": "Point"}, "properties": {"speed": 3}, "type": "Feature"}, {"geometry": {"coordinates": [-122.638172, 45.570655], "type": "Point"}, "properties": {"speed": 7}, "type": "Feature"}, {"geometry": {"coordinates": [-122.638202, 45.569932], "type": "Point"}, "properties": {"speed": 8}, "type": "Feature"}, {"geometry": {"coordinates": [-122.638208, 45.568352], "type": "Point"}, "properties": {"speed": 0}, "type": "Feature"}, {"geometry": {"coordinates": [-122.638205, 45.568347], "type": "Point"}, "properties": {"speed": 1}, "type": "Feature"}, {"geometry": {"coordinates": [-122.638173, 45.567242], "type": "Point"}, "properties": {"speed": 7}, "type": "Feature"}, {"geometry": {"coordinates": [-122.638175, 45.56607], "type": "Point"}, "properties": {"speed": 7}, "type": "Feature"}, {"geometry": {"coordinates": [-122.63817, 45.564967], "type": "Point"}, "properties": {"speed": 8}, "type": "Feature"}, {"geometry": {"coordinates": [-122.638182, 45.562795], "type": "Point"}, "properties": {"speed": 4}, "type": "Feature"}, {"geometry": {"coordinates": [-122.637915, 45.559513], "type": "Point"}, "properties": {"speed": 8}, "type": "Feature"}, {"geometry": {"coordinates": [-122.637923, 45.559123], "type": "Point"}, "properties": {"speed": 3}, "type": "Feature"}, {"geometry": {"coordinates": [-122.637937, 45.557735], "type": "Point"}, "properties": {"speed": 7}, "type": "Feature"}, {"geometry": {"coordinates": [-122.637945, 45.556468], "type": "Point"}, "properties": {"speed": 6}, "type": "Feature"}, {"geometry": {"coordinates": [-122.63795, 45.55559], "type": "Point"}, "properties": {"speed": 0}, "type": "Feature"}, {"geometry": {"coordinates": [-122.637968, 45.555487], "type": "Point"}, "properties": {"speed": 1}, "type": "Feature"}, {"geometry": {"coordinates": [-122.637968, 45.555482], "type": "Point"}, "properties": {"speed": 0}, "type": "Feature"}, {"geometry": {"coordinates": [-122.637968, 45.555482], "type": "Point"}, "properties": {"speed": 0}, "type": "Feature"}, {"geometry": {"coordinates": [-122.637968, 45.555482], "type": "Point"}, "properties": {"speed": 0}, "type": "Feature"}, {"geometry": {"coordinates": [-122.637968, 45.55546], "type": "Point"}, "properties": {"speed": 2}, "type": "Feature"}, {"geometry": {"coordinates": [-122.637083, 45.554283], "type": "Point"}, "properties": {"speed": 4}, "type": "Feature"}, {"geometry": {"coordinates": [-122.636, 45.554277], "type": "Point"}, "properties": {"speed": 4}, "type": "Feature"}, {"geometry": {"coordinates": [-122.63586, 45.55369], "type": "Point"}, "properties": {"speed": 9}, "type": "Feature"}, {"geometry": {"coordinates": [-122.635907, 45.552442], "type": "Point"}, "properties": {"speed": 9}, "type": "Feature"}, {"geometry": {"coordinates": [-122.63593, 45.55195], "type": "Point"}, "properties": {"speed": 9}, "type": "Feature"}, {"geometry": {"coordinates": [-122.635938, 45.550068], "type": "Point"}, "properties": {"speed": 2}, "type": "Feature"}, {"geometry": {"coordinates": [-122.638867, 45.549873], "type": "Point"}, "properties": {"speed": 0}, "type": "Feature"}, {"geometry": {"coordinates": [-122.638872, 45.549872], "type": "Point"}, "properties": {"speed": 0}, "type": "Feature"}, {"geometry": {"coordinates": [-122.639478, 45.549748], "type": "Point"}, "properties": {"speed": 6}, "type": "Feature"}, {"geometry": {"coordinates": [-122.64098, 45.549455], "type": "Point"}, "properties": {"speed": 5}, "type": "Feature"}, {"geometry": {"coordinates": [-122.641188, 45.54911], "type": "Point"}, "properties": {"speed": 5}, "type": "Feature"}, {"geometry": {"coordinates": [-122.641168, 45.54839], "type": "Point"}, "properties": {"speed": 0}, "type": "Feature"}, {"geometry": {"coordinates": [-122.64117, 45.543923], "type": "Point"}, "properties": {"speed": 7}, "type": "Feature"}, {"geometry": {"coordinates": [-122.641178, 45.541717], "type": "Point"}, "properties": {"speed": 8}, "type": "Feature"}, {"geometry": {"coordinates": [-122.641222, 45.537518], "type": "Point"}, "properties": {"speed": 7}, "type": "Feature"}, {"geometry": {"coordinates": [-122.641228, 45.537245], "type": "Point"}, "properties": {"speed": 6}, "type": "Feature"}, {"geometry": {"coordinates": [-122.64123, 45.536663], "type": "Point"}, "properties": {"speed": 6}, "type": "Feature"}, {"geometry": {"coordinates": [-122.642707, 45.53502], "type": "Point"}, "properties": {"speed": 7}, "type": "Feature"}, {"geometry": {"coordinates": [-122.6446, 45.535045], "type": "Point"}, "properties": {"speed": 7}, "type": "Feature"}, {"geometry": {"coordinates": [-122.646562, 45.535067], "type": "Point"}, "properties": {"speed": 6}, "type": "Feature"}, {"geometry": {"coordinates": [-122.646948, 45.535068], "type": "Point"}, "properties": {"speed": 6}, "type": "Feature"}, {"geometry": {"coordinates": [-122.647345, 45.535068], "type": "Point"}, "properties": {"speed": 6}, "type": "Feature"}, {"geometry": {"coordinates": [-122.648135, 45.53507], "type": "Point"}, "properties": {"speed": 6}, "type": "Feature"}, {"geometry": {"coordinates": [-122.649105, 45.535073], "type": "Point"}, "properties": {"speed": 4}, "type": "Feature"}, {"geometry": {"coordinates": [-122.651227, 45.535083], "type": "Point"}, "properties": {"speed": 6}, "type": "Feature"}, {"geometry": {"coordinates": [-122.651395, 45.535083], "type": "Point"}, "properties": {"speed": 2}, "type": "Feature"}, {"geometry": {"coordinates": [-122.661382, 45.535145], "type": "Point"}, "properties": {"speed": 10}, "type": "Feature"}, {"geometry": {"coordinates": [-122.66349, 45.535152], "type": "Point"}, "properties": {"speed": 12}, "type": "Feature"}, {"geometry": {"coordinates": [-122.67033, 45.534095], "type": "Point"}, "properties": {"speed": 1}, "type": "Feature"}, {"geometry": {"coordinates": [-122.670333, 45.534093], "type": "Point"}, "properties": {"speed": 0}, "type": "Feature"}, {"geometry": {"coordinates": [-122.670333, 45.534093], "type": "Point"}, "properties": {"speed": 0}, "type": "Feature"}, {"geometry": {"coordinates": [-122.67034, 45.53409], "type": "Point"}, "properties": {"speed": 1}, "type": "Feature"}, {"geometry": {"coordinates": [-122.670472, 45.534015], "type": "Point"}, "properties": {"speed": 3}, "type": "Feature"}, {"geometry": {"coordinates": [-122.670702, 45.533858], "type": "Point"}, "properties": {"speed": 5}, "type": "Feature"}, {"geometry": {"coordinates": [-122.676453, 45.530598], "type": "Point"}, "properties": {"speed": 14}, "type": "Feature"}, {"geometry": {"coordinates": [-122.677175, 45.530192], "type": "Point"}, "properties": {"speed": 0}, "type": "Feature"}, {"geometry": {"coordinates": [-122.677175, 45.530192], "type": "Point"}, "properties": {"speed": 0}, "type": "Feature"}, {"geometry": {"coordinates": [-122.677188, 45.53018], "type": "Point"}, "properties": {"speed": 2}, "type": "Feature"}, {"geometry": {"coordinates": [-122.675573, 45.526777], "type": "Point"}, "properties": {"speed": 8}, "type": "Feature"}, {"geometry": {"coordinates": [-122.675565, 45.525985], "type": "Point"}, "properties": {"speed": 5}, "type": "Feature"}, {"geometry": {"coordinates": [-122.675445, 45.523975], "type": "Point"}, "properties": {"speed": 0}, "type": "Feature"}, {"geometry": {"coordinates": [-122.675445, 45.523975], "type": "Point"}, "properties": {"speed": 1}, "type": "Feature"}, {"geometry": {"coordinates": [-122.675432, 45.523698], "type": "Point"}, "properties": {"speed": 5}, "type": "Feature"}, {"geometry": {"coordinates": [-122.676057, 45.521735], "type": "Point"}, "properties": {"speed": 7}, "type": "Feature"}, {"geometry": {"coordinates": [-122.676918, 45.520293], "type": "Point"}, "properties": {"speed": 7}, "type": "Feature"}, {"geometry": {"coordinates": [-122.67725, 45.519762], "type": "Point"}, "properties": {"speed": 6}, "type": "Feature"}, {"geometry": {"coordinates": [-122.678067, 45.518363], "type": "Point"}, "properties": {"speed": 4}, "type": "Feature"}, {"geometry": {"coordinates": [-122.6781, 45.518302], "type": "Point"}, "properties": {"speed": 0}, "type": "Feature"}, {"geometry": {"coordinates": [-122.6781, 45.518302], "type": "Point"}, "properties": {"speed": 0}, "type": "Feature"}, {"geometry": {"coordinates": [-122.6781, 45.518302], "type": "Point"}, "properties": {"speed": 0}, "type": "Feature"}, {"geometry": {"coordinates": [-122.678492, 45.517737], "type": "Point"}, "properties": {"speed": 5}, "type": "Feature"}, {"geometry": {"coordinates": [-122.67952, 45.515853], "type": "Point"}, "properties": {"speed": 8}, "type": "Feature"}, {"geometry": {"coordinates": [-122.67992, 45.514982], "type": "Point"}, "properties": {"speed": 0}, "type": "Feature"}, {"geometry": {"coordinates": [-122.67992, 45.514982], "type": "Point"}, "properties": {"speed": 0}, "type": "Feature"}, {"geometry": {"coordinates": [-122.680092, 45.514732], "type": "Point"}, "properties": {"speed": 6}, "type": "Feature"}, {"geometry": {"coordinates": [-122.68128, 45.512172], "type": "Point"}, "properties": {"speed": 9}, "type": "Feature"}], "type": "FeatureCollection"}